[{"OBJECT_NAME":"COSMOS 2436 (723)","OBJECT_ID":"2007-065C","EPOCH":"2022-08-19T09:19:32.480832","MEAN_MOTION":2.13102928,"ECCENTRICITY":0.0014767,"INCLINATION":64.3849,"RA_OF_ASC_NODE":239.3358,"ARG_OF_PERICENTER":350.6641,"MEAN_ANOMALY":337.5071,"EPHEMERIS_TYPE":0,"CLASSIFICATION_TYPE":"U","NORAD_CAT_ID":32395,"ELEMENT_SET_NO":999,"REV_AT_EPOCH":11394,"BSTAR":0,"MEAN_MOTION_DOT":8.2e-7,"MEAN_MOTION_DDOT":0},{"OBJECT_NAME":"GPS BIIRM-6 (PRN 07)","OBJECT_ID":"2008-012A","EPOCH":"2022-08-19T03:01:23.660256","MEAN_MOTION":2.00566914,"ECCENTRICITY":0.0165669,"INCLINATION":54.4731,"RA_OF_ASC_NODE":205.7028,"ARG_OF_PERICENTER":231.7731,"MEAN_ANOMALY":126.7092,"EPHEMERIS_TYPE":0,"CLASSIFICATION_TYPE":"U","NORAD_CAT_ID":32711,"ELEMENT_SET_NO":999,"REV_AT_EPOCH":10571,"BSTAR":0,"MEAN_MOTION_DOT":5.9e-7,"MEAN_MOTION_DDOT":0},{"OBJECT_NAME":"GPS BIIRM-8 (PRN 05)","OBJECT_ID":"2009-043A","EPOCH":"2022-08-19T02:39:42.585120","MEAN_MOTION":2.00552273,"ECCENTRICITY":0.0059206,"INCLINATION":55.1187,"RA_OF_ASC_NODE":83.005,"ARG_OF_PERICENTER":61.3999,"MEAN_ANOMALY":301.1626,"EPHEMERIS_TYPE":0,"CLASSIFICATION_TYPE":"U","NORAD_CAT_ID":35752,"ELEMENT_SET_NO":999,"REV_AT_EPOCH":9532,"BSTAR":0,"MEAN_MOTION_DOT":-5.6e-7,"MEAN_MOTION_DDOT":0},{"OBJECT_NAME":"COSMOS 2456 (730)","OBJECT_ID":"2009-070A","EPOCH":"2022-08-19T14:56:18.358080","MEAN_MOTION":2.13099388,"ECCENTRICITY":0.0003725,"INCLINATION":64.367,"RA_OF_ASC_NODE":118.8858,"ARG_OF_PERICENTER":318.2025,"MEAN_ANOMALY":218.2446,"EPHEMERIS_TYPE":0,"CLASSIFICATION_TYPE":"U","NORAD_CAT_ID":36111,"ELEMENT_SET_NO":999,"REV_AT_EPOCH":9868,"BSTAR":0,"MEAN_MOTION_DOT":-4.0e-7,"MEAN_MOTION_DDOT":0},{"OBJECT_NAME":"COSMOS 2457 (733)","OBJECT_ID":"2009-070B","EPOCH":"2022-08-19T11:08:31.975008","MEAN_MOTION":2.13101581,"ECCENTRICITY":0.000469,"INCLINATION":64.3505,"RA_OF_ASC_NODE":118.7641,"ARG_OF_PERICENTER":162.0713,"MEAN_ANOMALY":20.817,"EPHEMERIS_TYPE":0,"CLASSIFICATION_TYPE":"U","NORAD_CAT_ID":36112,"ELEMENT_SET_NO":999,"REV_AT_EPOCH":9868,"BSTAR":0,"MEAN_MOTION_DOT":-4.0e-7,"MEAN_MOTION_DDOT":0},{"OBJECT_NAME":"BEIDOU 3 (C01)","OBJECT_ID":"2010-001A","EPOCH":"2022-08-19T09:16:26.610240","MEAN_MOTION":1.00274221,"ECCENTRICITY":0.0003637,"INCLINATION":2.0078,"RA_OF_ASC_NODE":49.2888,"ARG_OF_PERICENTER":41.4231,"MEAN_ANOMALY":156.5794,"EPHEMERIS_TYPE":0,"CLASSIFICATION_TYPE":"U","NORAD_CAT_ID":36287,"ELEMENT_SET_NO":999,"REV_AT_EPOCH":4614,"BSTAR":0,"MEAN_MOTION_DOT":-2.86e-6,"MEAN_MOTION_DDOT":0},{"OBJECT_NAME":"COSMOS 2461 (735)","OBJECT_ID":"2010-007B","EPOCH":"2022-08-19T14:26:39.698304","MEAN_MOTION":2.13103722,"ECCENTRICITY":0.0019202,"INCLINATION":65.9654,"RA_OF_ASC_NODE":1.4052,"ARG_OF_PERICENTER":12.6367,"MEAN_ANOMALY":310.8694,"EPHEMERIS_TYPE":0,"CLASSIFICATION_TYPE":"U","NORAD_CAT_ID":36401,"ELEMENT_SET_NO":999,"REV_AT_EPOCH":9703,"BSTAR":0,"MEAN_MOTION_DOT":-8.4e-7,"MEAN_MOTION_DDOT":0},{"OBJECT_NAME":"COSMOS 2460 (732)","OBJECT_ID":"2010-007C","EPOCH":"2022-08-19T05:52:42.648384","MEAN_MOTION":2.13106428,"ECCENTRICITY":0.0002314,"INCLINATION":65.9525,"RA_OF_ASC_NODE":1.366,"ARG_OF_PERICENTER":118.9123,"MEAN_ANOMALY":239.8104,"EPHEMERIS_TYPE":0,"CLASSIFICATION_TYPE":"U","NORAD_CAT_ID":36402,"ELEMENT_SET_NO":999,"REV_AT_EPOCH":9702,"BSTAR":0,"MEAN_MOTION_DOT":-8.3e-7,"MEAN_MOTION_DDOT":0},{"OBJECT_NAME":"GPS BIIF-1  (PRN 25)","OBJECT_ID":"2010-022A","EPOCH":"2022-08-19T10:46:12.076032","MEAN_MOTION":2.00568596,"ECCENTRICITY":0.0102706,"INCLINATION":54.765,"RA_OF_ASC_NODE":264.9742,"ARG_OF_PERICENTER":56.8601,"MEAN_ANOMALY":309.7093,"EPHEMERIS_TYPE":0,"CLASSIFICATION_TYPE":"U","NORAD_CAT_ID":36585,"ELEMENT_SET_NO":999,"REV_AT_EPOCH":8956,"BSTAR":0,"MEAN_MOTION_DOT":2.6e-7,"MEAN_MOTION_DDOT":0},{"OBJECT_NAME":"BEIDOU 5 (C06)","OBJECT_ID":"2010-036A","EPOCH":"2022-08-19T13:02:21.150240","MEAN_MOTION":1.00280684,"ECCENTRICITY":0.0030551,"INCLINATION":54.2013,"RA_OF_ASC_NODE":175.6508,"ARG_OF_PERICENTER":190.2032,"MEAN_ANOMALY":265.3703,"EPHEMERIS_TYPE":0,"CLASSIFICATION_TYPE":"U","NORAD_CAT_ID":36828,"ELEMENT_SET_NO":999,"REV_AT_EPOCH":4421,"BSTAR":0,"MEAN_MOTION_DOT":-1.22e-6,"MEAN_MOTION_DDOT":0},{"OBJECT_NAME":"COSMOS 2464 (736)","OBJECT_ID":"2010-041C","EPOCH":"2022-08-19T13:04:43.599648","MEAN_MOTION":2.13100794,"ECCENTRICITY":0.0027982,"INCLINATION":63.9752,"RA_OF_ASC_NODE":238.3166,"ARG_OF_PERICENTER":5.652,"MEAN_ANOMALY":164.4022,"EPHEMERIS_TYPE":0,"CLASSIFICATION_TYPE":"U","NORAD_CAT_ID":37139,"ELEMENT_SET_NO":999,"REV_AT_EPOCH":9309,"BSTAR":0,"MEAN_MOTION_DOT":8.3e-7,"MEAN_MOTION_DDOT":0},{"OBJECT_NAME":"QZS-1 (QZSS\/PRN 183)","OBJECT_ID":"2010-045A","EPOCH":"2022-08-18T14:21:03.128832","MEAN_MOTION":1.00241655,"ECCENTRICITY":0.0764943,"INCLINATION":42.3959,"RA_OF_ASC_NODE":132.5308,"ARG_OF_PERICENTER":270.9368,"MEAN_ANOMALY":275.1899,"EPHEMERIS_TYPE":0,"CLASSIFICATION_TYPE":"U","NORAD_CAT_ID":37158,"ELEMENT_SET_NO":999,"REV_AT_EPOCH":4371,"BSTAR":0,"MEAN_MOTION_DOT":-2.34e-6,"MEAN_MOTION_DDOT":0},{"OBJECT_NAME":"BEIDOU 6 (C04)","OBJECT_ID":"2010-057A","EPOCH":"2022-08-19T08:36:17.518176","MEAN_MOTION":1.0027325,"ECCENTRICITY":0.0005962,"INCLINATION":0.9618,"RA_OF_ASC_NODE":53.85,"ARG_OF_PERICENTER":131.0658,"MEAN_ANOMALY":71.87,"EPHEMERIS_TYPE":0,"CLASSIFICATION_TYPE":"U","NORAD_CAT_ID":37210,"ELEMENT_SET_NO":999,"REV_AT_EPOCH":4326,"BSTAR":0,"MEAN_MOTION_DOT":-1.18e-6,"MEAN_MOTION_DDOT":0},{"OBJECT_NAME":"BEIDOU 7 (C07)","OBJECT_ID":"2010-068A","EPOCH":"2022-08-19T13:21:40.567392","MEAN_MOTION":1.00287464,"ECCENTRICITY":0.0023828,"INCLINATION":50.1014,"RA_OF_ASC_NODE":288.8938,"ARG_OF_PERICENTER":200.4157,"MEAN_ANOMALY":146.3286,"EPHEMERIS_TYPE":0,"CLASSIFICATION_TYPE":"U","NORAD_CAT_ID":37256,"ELEMENT_SET_NO":999,"REV_AT_EPOCH":4277,"BSTAR":0,"MEAN_MOTION_DOT":-1.84e-6,"MEAN_MOTION_DDOT":0},{"OBJECT_NAME":"BEIDOU 8 (C08)","OBJECT_ID":"2011-013A","EPOCH":"2022-08-19T10:49:41.858688","MEAN_MOTION":1.00290426,"ECCENTRICITY":0.002334,"INCLINATION":60.3839,"RA_OF_ASC_NODE":53.6333,"ARG_OF_PERICENTER":177.118,"MEAN_ANOMALY":6.4462,"EPHEMERIS_TYPE":0,"CLASSIFICATION_TYPE":"U","NORAD_CAT_ID":37384,"ELEMENT_SET_NO":999,"REV_AT_EPOCH":4165,"BSTAR":0,"MEAN_MOTION_DOT":-1.66e-6,"MEAN_MOTION_DDOT":0},{"OBJECT_NAME":"GSAT-8 (GAGAN\/PRN 127)","OBJECT_ID":"2011-022A","EPOCH":"2022-08-18T23:15:14.961024","MEAN_MOTION":1.00273804,"ECCENTRICITY":0.000387,"INCLINATION":0.0134,"RA_OF_ASC_NODE":122.2806,"ARG_OF_PERICENTER":128.3217,"MEAN_ANOMALY":120.5728,"EPHEMERIS_TYPE":0,"CLASSIFICATION_TYPE":"U","NORAD_CAT_ID":37605,"ELEMENT_SET_NO":999,"REV_AT_EPOCH":3919,"BSTAR":0,"MEAN_MOTION_DOT":7.8e-7,"MEAN_MOTION_DDOT":0},{"OBJECT_NAME":"GPS BIIF-2  (PRN 01)","OBJECT_ID":"2011-036A","EPOCH":"2022-08-19T08:13:05.342880","MEAN_MOTION":2.00565856,"ECCENTRICITY":0.0118502,"INCLINATION":56.6345,"RA_OF_ASC_NODE":26.2574,"ARG_OF_PERICENTER":53.2213,"MEAN_ANOMALY":320.6999,"EPHEMERIS_TYPE":0,"CLASSIFICATION_TYPE":"U","NORAD_CAT_ID":37753,"ELEMENT_SET_NO":999,"REV_AT_EPOCH":8124,"BSTAR":0,"MEAN_MOTION_DOT":-8.4e-7,"MEAN_MOTION_DDOT":0}]